[{"OBJECT_NAME":"STARLINK-34666","OBJECT_ID":"2025-150E","EPOCH":"2026-03-09T13:35:11.011488","MEAN_MOTION":14.98338956,"ECCENTRICITY":0.0003289,"INCLINATION":70.0022,"RA_OF_ASC_NODE":134.9587,"ARG_OF_PERICENTER":265.9377,"MEAN_ANOMALY":94.1406,"EPHEMERIS_TYPE":0,"CLASSIFICATION_TYPE":"U","NORAD_CAT_ID":64794,"ELEMENT_SET_NO":999,"REV_AT_EPOCH":3649,"BSTAR":0.00097315,"MEAN_MOTION_DOT":0.0001154,"MEAN_MOTION_DDOT":0},{"OBJECT_NAME":"COSMOS 2251 DEB","OBJECT_ID":"1993-036BUC","EPOCH":"2026-03-09T01:22:56.754912","MEAN_MOTION":14.94925122,"ECCENTRICITY":0.00400506,"INCLINATION":73.998,"RA_OF_ASC_NODE":322.714,"ARG_OF_PERICENTER":103.344,"MEAN_ANOMALY":257.2214,"EPHEMERIS_TYPE":0,"CLASSIFICATION_TYPE":"U","NORAD_CAT_ID":39546,"ELEMENT_SET_NO":999,"REV_AT_EPOCH":65725,"BSTAR":0.0016507429,"MEAN_MOTION_DOT":0.00018318,"MEAN_MOTION_DDOT":0}]
